IRIDIUM 65 [+]          
1 25288U 98021D   17305.67664307  .00000124  00000-0  37112-4 0  9995
2 25288  86.3978 166.4242 0001865  85.6722 274.4687 14.34221110 24444
IRIDIUM 66 [+]          
1 25289U 98021E   17305.68297871  .00000132  00000-0  40047-4 0  9995
2 25289  86.3978 166.3238 0001900  82.9453 277.1959 14.34222011 24735
IRIDIUM 67 [+]          
1 25290U 98021F   17305.68931483  .00000031  00000-0  41148-5 0  9993
2 25290  86.3979 166.4595 0001973  83.8772 276.2648 14.34220460 24448
IRIDIUM 68 [+]          
1 25291U 98021G   17305.69567616  .00000126  00000-0  38026-4 0  9993
2 25291  86.3980 166.5779 0001974  86.3436 273.7985 14.34221067 24385
IRIDIUM 69 [-]          
1 25319U 98026A   17305.75514553  .00000121  00000-0  32907-4 0  9995
2 25319  86.4036 187.8720 0002610 132.6319 227.5099 14.38700056 22570
IRIDIUM 71 [-]          
1 25320U 98026B   17305.70594232  .00000119  00000-0  31986-4 0  9997
2 25320  86.4017 183.7210 0000475 171.8776 188.2430 14.39113704 22996
IRIDIUM 70 [+]          
1 25342U 98032A   17305.73424907  .00000123  00000-0  36952-4 0  9995
2 25342  86.3985 166.8104 0001863  82.6057 345.7505 14.34220895 18511
IRIDIUM 72 [+]          
1 25343U 98032B   17305.70834006  .00000130  00000-0  39185-4 0  9997
2 25343  86.3978 166.4241 0001929  84.8915 275.2501 14.34221955 18546
IRIDIUM 73 [-]          
1 25344U 98032C   17305.63118932  .00000161  00000-0  36988-4 0  9995
2 25344  86.4414 144.9065 0001855  72.7803 287.3604 14.49071447 27158
IRIDIUM 75 [+]          
1 25346U 98032E   17305.71468834  .00000130  00000-0  39524-4 0  9990
2 25346  86.3982 166.6785 0001953  84.6276 275.5143 14.34221744 19085
IRIDIUM 3 [+]           
1 25431U 98048A   17305.84892794  .00000185  00000-0  59042-4 0  9999
2 25431  86.4012 198.1776 0001863  81.6330 331.8605 14.34220460  5081
IRIDIUM 76 [+]          
1 25432U 98048B   17305.85763285  .00000178  00000-0  56596-4 0  9996
2 25432  86.4009 197.9238 0002056  76.1876 283.9549 14.34221034  5326
IRIDIUM 82 [-]          
1 25467U 98051A   17305.53560682  .00001030  00000-0  76886-4 0  9991
2 25467  86.3977 317.8639 0180078 261.5191  96.5591 14.89556266  7286
IRIDIUM 81 [+]          
1 25468U 98051B   17305.54747177  .00000068  00000-0  15850-4 0  9993
2 25468  86.4209 324.4026 0002374  86.9873 273.1597 14.38609727  2591
IRIDIUM 80 [+]          
1 25469U 98051C   17305.90377258 -.00000019  00000-0 -13860-4 0  9990
2 25469  86.3936 324.5274 0002186 105.8660 323.3552 14.34217637  2556
IRIDIUM 2 [-]           
1 25527U 98066A   17305.94794662  .00001558  00000-0  77108-4 0  9999
2 25527  85.5268 310.9132 0007172 316.1806  43.8864 15.16935547 39245
IRIDIUM 86 [+]          
1 25528U 98066B   17305.90594314 -.00000023  00000-0 -15358-4 0  9995
2 25528  86.3910 292.1994 0001945  83.4729 276.6688 14.34216097998869
IRIDIUM 84 [+]          
1 25530U 98066D   17305.51903958 -.00000019  00000-0 -13750-4 0  9992
2 25530  86.3912 292.5286 0002148  83.0365 277.1075 14.34216187996684
IRIDIUM 83 [+]          
1 25531U 98066E   17305.89959646 -.00000007  00000-0 -97367-5 0  9993
2 25531  86.3914 292.5003 0002194  84.6400 275.5046 14.34216379993806
IRIDIUM 20 [+]          
1 25577U 98074A   17305.74980640  .00000187  00000-0  59650-4 0  9993
2 25577  86.4008 197.8884 0001970  82.7226 277.4194 14.34222133173542
IRIDIUM 11 [+]          
1 25578U 98074B   17305.84077020  .00000179  00000-0  56991-4 0  9990
2 25578  86.4007 198.0508 0001981  85.5099 318.4926 14.34220423997126
IRIDIUM 14 [+]          
1 25777U 99032A   17305.66395315  .00000125  00000-0  37676-4 0  9996
2 25777  86.3981 166.5289 0001855  83.9430 276.1977 14.34221268974303
IRIDIUM 21 [+]          
1 25778U 99032B   17305.70199646  .00000122  00000-0  36377-4 0  9995
2 25778  86.3979 166.5299 0002085  82.2926 277.8507 14.34221979967746
IRIDIUM 91 [+]          
1 27372U 02005A   17305.89284080  .00000171  00000-0  54112-4 0  9999
2 27372  86.3999 229.5872 0001995  69.7759 356.3360 14.34220619831313
IRIDIUM 90 [S]          
1 27373U 02005B   17305.91310940 -.00000014  00000-0 -10225-4 0  9993
2 27373  86.4425 292.4845 0002045  81.9219 278.2213 14.42948703831142
IRIDIUM 94 [+]          
1 27374U 02005C   17305.86014807  .00000188  00000-0  59914-4 0  9999
2 27374  86.4010 198.1760 0001895  62.8841 342.9700 14.34220330835652
IRIDIUM 95 [+]          
1 27375U 02005D   17305.84835174  .00000091  00000-0  25445-4 0  9991
2 27375  86.3996 229.6236 0002540  62.7966 297.3488 14.34212667830619
IRIDIUM 96 [+]          
1 27376U 02005E   17305.89615101  .00000091  00000-0  25388-4 0  9999
2 27376  86.3979 261.6642 0003245  72.0295 288.1254 14.34215019236512
IRIDIUM 97 [+]          
1 27450U 02031A   17305.86441990  .00000017  00000-0 -11217-5 0  9997
2 27450  86.3946 261.3047 0002250  85.1590 274.9862 14.34217368809910
IRIDIUM 98 [+]          
1 27451U 02031B   17305.68745248 -.00000020  00000-0 -14111-4 0  9991
2 27451  86.3931 324.7062 0001676  95.7823 264.3564 14.34217987810992
